STARLINK-30934          
1 58395U 23178X   26068.13385654 -.00001159  00000+0 -27036-4 0  9997
2 58395  53.1615   3.9148 0001000 102.8812 257.2300 15.30187998129733
GLOBAL-34               
1 68098U 26043A   26068.47466435  .00014018  00000+0  45822-3 0  9994
2 68098  42.0215  76.7399 0006884 289.2632  70.7460 15.31488019   538
